OUFTI-1                 
1 41458U 16025C   22273.44150679  .00019446  00000+0  78297-3 0  9997
2 41458  98.1942  88.2418 0135213 267.5845  90.9900 15.16813548353482
E-ST@R-II               
1 41459U 16025D   22274.13371802  .00013299  00000+0  55225-3 0  9994
2 41459  98.1944  87.3410 0138794 270.0596  88.4754 15.15525044353496
AAUSAT 4                
1 41460U 16025E   22274.05624446  .00026000  00000+0  91863-3 0  9994
2 41460  98.1831  94.5111 0116654 242.7011 116.2310 15.22867843353997
AIST-2D (RS-48)         
1 41465U 16026B   22274.13518512  .00016429  00000+0  36431-3 0  9999
2 41465  97.0379 146.9951 0011070 104.5596  46.7967 15.43746389359827
NUSAT-1 (FRESCO)        
1 41557U 16033B   22274.12895138  .00016743  00000+0  46232-3 0  9999
2 41557  97.3902  12.1814 0010062   5.7789  89.3955 15.37090709353603
NUSAT-2 (BATATA)        
1 41558U 16033C   22274.15710221  .00017249  00000+0  44807-3 0  9990
2 41558  97.4124  18.5113 0009448 353.9242 100.7036 15.38979502353898
CARTOSAT-2C             
1 41599U 16040A   22274.18480406  .00003686  00000+0  17765-3 0  9998
2 41599  97.4760 332.8022 0014137 170.7077 253.5386 15.19267123347988
SATHYABAMASAT           
1 41600U 16040B   22274.13329552  .00023326  00000+0  66342-3 0  9998
2 41600  97.2080 324.1992 0011834 102.1980 258.0590 15.36074699349103
LAPAN-A3                
1 41603U 16040E   22274.10514628  .00001464  00000+0  68994-4 0  9993
2 41603  97.1980 306.4980 0014121 143.5702 300.8564 15.20921509348095
BIROS                   
1 41604U 16040F   22273.86303580  .00006397  00000+0  25839-3 0  9999
2 41604  97.2003 314.2948 0013180 117.1728 243.0856 15.25012796348527
SWAYAM                  
1 41607U 16040J   22273.37172553  .00020742  00000+0  61404-3 0  9990
2 41607  97.2035 321.5239 0012133 104.9264 255.3324 15.34835025348855
BEESAT-4                
1 41619U 16040W   22273.38139099  .00018789  00000+0  57610-3 0  9994
2 41619  97.2050 321.3246 0010584 101.4170 258.8262 15.33761272336797
3CAT-2                  
1 41732U 16051B   22273.61715370  .00014740  00000+0  42722-3 0  9991
2 41732  97.3800 196.7608 0008648 276.4972 205.3065 15.35615472341453
PRATHAM                 
1 41783U 16059A   22273.86180121  .00000584  00000+0  12087-3 0  9994
2 41783  97.9040 311.1489 0032957 198.6399 161.3599 14.63437770321048
ALSAT 1N                
1 41789U 16059G   22274.16658912  .00000534  00000+0  10828-3 0  9998
2 41789  97.9067 316.2613 0028132 179.4539 180.6699 14.64786964321342
LISHUI 1-01             
1 41845U 16066E   22274.16738412  .00051955  00000+0  45280-2 0  9995
2 41845  98.7293  54.1776 0194378  94.9641 267.3694 14.83235237312446
CARTOSAT-2D             
1 41948U 17008A   22274.08465617  .00003413  00000+0  16546-3 0  9991
2 41948  97.4530 332.4517 0005973 324.3435  94.5520 15.19184970311835
NAYIF-1 (EO-88)         
1 42017U 17008BX  22274.16033108  .00022673  00000+0  61134-3 0  9996
2 42017  97.2576 338.8985 0004020 207.6444 152.4587 15.37805160313307
ZHUHAI-1 02 (CAS-4B)    
1 42759U 17034B   22274.07141524  .00004446  00000+0  26260-3 0  9999
2 42759  43.0170 110.2554 0010371 241.4120 263.8018 15.12589282292349
ZHUHAI-1 01 (CAS-4A)    
1 42761U 17034D   22274.03349567  .00004180  00000+0  24713-3 0  9991
2 42761  43.0166 109.1721 0010780 242.7028 253.3658 15.12667154292344
UCLSAT                  
1 42765U 17036A   22273.82648956  .00018463  00000+0  59910-3 0  9993
2 42765  97.1868 313.2845 0007183 314.9074  45.1584 15.31983376293971
NIUSAT                  
1 42766U 17036B   22274.08805699  .00013713  00000+0  50389-3 0  9996
2 42766  97.1931 308.1929 0011534 317.7985  42.2366 15.27960782292927
CARTOSAT-2E             
1 42767U 17036C   22274.16844028  .00004182  00000+0  20175-3 0  9995
2 42767  97.4431 333.2341 0008078  18.3773  38.7806 15.19206728292418
LITUANICASAT-2          
1 42768U 17036D   22274.06768283  .00048321  00000+0  11768-2 0  9993
2 42768  97.1941 317.4350 0007328 283.5454  76.4977 15.40749240293486
AALTO-1                 
1 42775U 17036L   22273.33558527  .00008378  00000+0  31944-3 0  9995
2 42775  97.1883 307.1912 0010641 321.4432  38.6047 15.26878401292774
URSA MAIOR              
1 42776U 17036M   22273.33943963  .00009294  00000+0  34680-3 0  9996
2 42776  97.1898 308.0375 0010329 319.7037  40.3437 15.27565765292813
COMPASS 2               
1 42777U 17036N   22274.09372590  .00032965  00000+0  93955-3 0  9994
2 42777  97.1930 316.2252 0007030 293.7067  66.3440 15.35985886293345
MAX VALIER SAT          
1 42778U 17036P   22274.10549807  .00011844  00000+0  42901-3 0  9992
2 42778  97.1952 311.6217 0008828 317.4583  42.5973 15.28493286293036
PEGASUS                 
1 42784U 17036V   22273.35780825  .00013327  00000+0  44794-3 0  9992
2 42784  97.1888 311.9733 0008128 320.8511  39.2142 15.30910292293056
NUDTSAT                 
1 42787U 17036Y   22273.94451877  .00025048  00000+0  68419-3 0  9995
2 42787  97.1920 317.5342 0005777 300.7593  59.3086 15.37375086293286
SUCHAI                  
1 42788U 17036Z   22273.34821432  .00017078  00000+0  53429-3 0  9997
2 42788  97.1889 313.9102 0007139 313.4657  46.5992 15.33170337293249
SKCUBE                  
1 42789U 17036AA  22273.86134619  .00019534  00000+0  62980-3 0  9990
2 42789  97.1891 313.7402 0007336 313.4257  46.6374 15.32177910293203
VZLUSAT-1               
1 42790U 17036AB  22273.37863671  .00025271  00000+0  69616-3 0  9993
2 42790  97.1911 316.9214 0005723 301.0497  59.0186 15.37109463293348
ROBUSTA-1B              
1 42792U 17036AD  22274.10241353  .00017507  00000+0  55233-3 0  9997
2 42792  97.1891 314.6265 0006808 312.0024  48.0638 15.32898849293293
D-SAT                   
1 42794U 17036AF  22273.98362883  .00003173  00000+0  26745-3 0  9996
2 42794  97.4559 273.8703 0123906  91.7406 269.8010 14.93028447287257
NORSAT 2                
1 42828U 17042D   22273.85080834  .00003306  00000+0  32095-3 0  9993
2 42828  97.4176 124.2927 0014386  17.0619 343.1082 14.93194821283896
TECHNOSAT               
1 42829U 17042E   22274.11697806  .00001766  00000+0  17865-3 0  9993
2 42829  97.4093 122.0449 0014523  19.9847 340.1938 14.92085509283840
2017-042F               
1 42830U 17042F   22273.72139336  .00007511  00000+0  67645-3 0  9995
2 42830  97.4219 126.7640 0013514   8.1412 352.0027 14.95798422284012
FLYING LAPTOP           
1 42831U 17042G   22273.76542440  .00000785  00000+0  82496-4 0  9992
2 42831  97.4109 122.0500 0014517  21.2536 338.9279 14.91955582283796
CORVUS BC2              
1 42846U 17042X   22273.83961403  .00001787  00000+0  17626-3 0  9995
2 42846  97.4102 125.1354 0009727  13.3131 346.8344 14.93129362284003
CORVUS BC1              
1 42847U 17042Y   22274.18109063  .00001545  00000+0  15273-3 0  9999
2 42847  97.4102 125.7808 0009362  11.4464 348.6967 14.93222303284063
CZ-4C R/B               
1 43012U 17072C   22273.38852534  .00000336  00000+0  79611-4 0  9990
2 43012  98.6880 313.9697 0127043 357.0942   2.9502 14.56405311259134
RADFXSAT (FOX-1B)       
1 43017U 17073E   22274.12336802  .00004447  00000+0  33407-3 0  9993
2 43017  97.6585 163.9661 0245678 201.2561 157.8309 14.82101543262763
EAGLESAT 1              
1 43018U 17073F   22273.48747924  .00006665  00000+0  47763-3 0  9997
2 43018  97.6624 165.5487 0236925 196.0369 163.3256 14.84791557262679
INS-1C                  
1 43116U 18004F   22274.19920660  .00015568  00000+0  50273-3 0  9992
2 43116  97.3674 349.5749 0006683 347.2022  12.9049 15.32183930262513
FLOCK 3P'-3             
1 43119U 18004J   22273.16612984  .00007593  00000+0  27759-3 0  9990
2 43119  97.3666 346.0505 0008794   4.8327 355.2996 15.28326615262202
FLOCK 3P'-2             
1 43120U 18004K   22273.46307383  .00007680  00000+0  28404-3 0  9994
2 43120  97.3668 345.9002 0008605   5.6360 354.4975 15.27945381262218
FLOCK 3P'-1             
1 43121U 18004L   22274.21232110  .00034844  00000+0  82636-3 0  9993
2 43121  97.3707 353.3997 0004943 328.6997  31.3955 15.41640796262705
FLOCK 3P'-4             
1 43122U 18004M   22273.64607326  .00009098  00000+0  33613-3 0  9999
2 43122  97.3677 346.2611 0008530   7.1082 353.0277 15.27922966262242
MICROMAS-2A             
1 43131U 18004W   22273.66240205  .00040136  00000+0  97512-3 0  9996
2 43131  97.3675 353.4699 0004836 336.9968  23.1061 15.40880396262754
PICSAT                  
1 43132U 18004X   22273.48083830  .00018116  00000+0  55245-3 0  9996
2 43132  97.3638 349.4174 0006574 354.0435   6.0728 15.33980367262490
CNUSAIL-1               
1 43133U 18004Y   22274.16126200  .00012435  00000+0  42638-3 0  9992
2 43133  97.3588 347.5088 0007563 358.8644   1.2578 15.30290040262445
2018-004Z               
1 43134U 18004Z   22274.16534537  .00016593  00000+0  53226-3 0  9993
2 43134  97.3618 349.1334 0006883 354.3450   5.7713 15.32381763262537
FOX-1D (AO-92)          
1 43137U 18004AC  22274.16018571  .00013890  00000+0  46227-3 0  9991
2 43137  97.3598 348.4450 0006908 358.2558   1.8658 15.31236325262502
STEP CUBE LAB           
1 43138U 18004AD  22273.22264972  .00027147  00000+0  72383-3 0  9998
2 43138  97.3676 352.0517 0005356 349.3181  10.7950 15.38111300262623
XIAOXIANG-2             
1 43155U 18008A   22274.17350119  .00008155  00000+0  41921-3 0  9997
2 43155  97.3416 329.1970 0017144 133.9702 293.1055 15.16588339259294
ZHOU ENLAI              
1 43156U 18008B   22274.13977693  .00009073  00000+0  46897-3 0  9993
2 43156  97.3464 329.0740 0014366 133.5706 311.3933 15.16403826259212
QUANTUTONG 1            
1 43158U 18008D   22274.12938196  .00007670  00000+0  41078-3 0  9996
2 43158  97.3429 326.8193 0013680 134.3339 279.4431 15.15206885259101
S-NET D                 
1 43186U 18014G   22273.69657743  .00003479  00000+0  29740-3 0  9996
2 43186  97.6483 177.3874 0009001 314.2954  45.7529 14.98248843254673
